COSMOS 2251 DEB         
1 36384U 93036AZM 17345.60872806  .00001303  00000-0  34048-3 0  9991
2 36384  74.0298 172.8048 0016243 235.4353 124.5275 14.50356781444634
